[{"OBJECT_NAME":"STARLINK-3635","OBJECT_ID":"2022-025AB","EPOCH":"2026-03-09T22:42:59.933664","MEAN_MOTION":15.08824126,"ECCENTRICITY":0.00012025,"INCLINATION":53.2186,"RA_OF_ASC_NODE":37.9675,"ARG_OF_PERICENTER":98.7325,"MEAN_ANOMALY":261.3803,"EPHEMERIS_TYPE":0,"CLASSIFICATION_TYPE":"U","NORAD_CAT_ID":51981,"ELEMENT_SET_NO":999,"REV_AT_EPOCH":22109,"BSTAR":0.00010727137,"MEAN_MOTION_DOT":1.419e-5,"MEAN_MOTION_DDOT":0},{"OBJECT_NAME":"CZ-6A DEB","OBJECT_ID":"2024-140AAU","EPOCH":"2026-03-09T16:48:50.985504","MEAN_MOTION":14.99127941,"ECCENTRICITY":0.00591225,"INCLINATION":89.196,"RA_OF_ASC_NODE":296.0099,"ARG_OF_PERICENTER":104.8686,"MEAN_ANOMALY":255.9106,"EPHEMERIS_TYPE":0,"CLASSIFICATION_TYPE":"U","NORAD_CAT_ID":61486,"ELEMENT_SET_NO":999,"REV_AT_EPOCH":8015,"BSTAR":0.0049724997,"MEAN_MOTION_DOT":0.00063139,"MEAN_MOTION_DDOT":0}]
